SPEI SATELLES           
1 56991U 23084BT  24216.22482778  .00033858  00000+0  11287-2 0  9999
2 56991  97.5392 337.1482 0008781 182.9010 177.2181 15.30981484 63436
URESAT-1                
1 56992U 23084BU  24216.54752493  .00042744  00000+0  13997-2 0  9993
2 56992  97.5349 336.5350 0011929 215.7715 144.2728 15.31472919 63420
MRC-100                 
1 56993U 23084BV  24216.31454617  .00048433  00000+0  14563-2 0  9997
2 56993  97.5347 336.8700 0011296 215.7946 144.2541 15.34175359 63439
METEOR-M2 3             
1 57166U 23091A   24216.47686326  .00000067  00000+0  48692-4 0  9992
2 57166  98.7100 270.7195 0003952  10.1132 350.0126 14.23908796 57356
STRATOSAT-TK 1 (RS52S)  
1 57167U 23091B   24216.50069997  .00019532  00000+0  10729-2 0  9991
2 57167  97.6085 269.4873 0013222 318.5972  41.4256 15.14079762 60715
UMKA 1 (RS40S)          
1 57172U 23091G   24216.51319686  .00007108  00000+0  46173-3 0  9990
2 57172  97.6083 268.0926 0015371 323.7724  36.2462 15.08243853 60621
2023-091H               
1 57173U 23091H   24216.54494469  .00010256  00000+0  64685-3 0  9993
2 57173  97.6092 268.2033 0013587 334.4705  25.5851 15.09232551 60636
2023-091J               
1 57174U 23091J   24216.49984025  .00006255  00000+0  43170-3 0  9990
2 57174  97.6096 267.3655 0014745 335.5578  24.4948 15.06054766 60573
CUBEBEL 2 (EU11S)       
1 57175U 23091K   24216.50525439  .00010528  00000+0  66546-3 0  9993
2 57175  97.6084 268.0911 0013882 336.4039  23.6552 15.09141216 60625
SITRO-AIS 5 (KATYS)     
1 57176U 23091L   24216.50579699  .00010938  00000+0  68567-3 0  9991
2 57176  97.6092 268.3026 0016114 323.0367  36.9751 15.09408272 60639
ZORKIY-2M 1             
1 57177U 23091M   24216.50228864  .00007662  00000+0  49456-3 0  9993
2 57177  97.6102 268.1961 0016159 318.8585  41.1424 15.08440286 60625
CUBESX-HSE 3 (RS42S)    
1 57178U 23091N   24216.48844515  .00010437  00000+0  64617-3 0  9998
2 57178  97.6127 268.6234 0015540 316.8438  43.1573 15.09882786 60644
MONITOR-3 (RS58S)       
1 57180U 23091Q   24216.49116849  .00010302  00000+0  64751-3 0  9994
2 57180  97.6120 268.4331 0015922 317.4214  42.5779 15.09330191 60637
MONITOR-4 (RS57S)       
1 57182U 23091S   24216.49183728  .00010323  00000+0  64862-3 0  9992
2 57182  97.6114 268.4040 0015988 318.1078  41.8927 15.09340841 60637
MONITOR-2 (RS39S)       
1 57184U 23091U   24216.47508831  .00006321  00000+0  41128-3 0  9991
2 57184  97.6123 268.4541 0012522 313.7669  46.2522 15.08261732 60633
SVYATOBOR 1 (RS60S)     
1 57187U 23091X   24216.44633647  .00009141  00000+0  56518-3 0  9997
2 57187  97.6116 268.9595 0011977 309.0011  51.0151 15.10013731 60666
HORS 1                  
1 57188U 23091Y   24216.44252842  .00009018  00000+0  55773-3 0  9997
2 57188  97.6096 268.8702 0011379 309.6824  50.3401 15.10012431 60663
VIZARD-METEO (RS38S)    
1 57189U 23091Z   24216.42187541  .00011860  00000+0  70067-3 0  9990
2 57189  97.6116 269.4134 0010713 306.1293  53.8945 15.11606989 60698
NANOZOND 1 (RS49S)      
1 57190U 23091AA  24216.47045183  .00016236  00000+0  88119-3 0  9991
2 57190  97.6089 270.1356 0008864 309.4827  50.5620 15.14592304 60756
SITRO-AIS 6 (CHIRKIN)   
1 57192U 23091AC  24216.48911662  .00010255  00000+0  64215-3 0  9994
2 57192  97.6097 268.3138 0015877 323.1448  36.8688 15.09467616 60637
SITRO-AIS 8 (ANOKHIN)   
1 57193U 23091AD  24216.44609783  .00010157  00000+0  62960-3 0  9995
2 57193  97.6089 268.3619 0015589 324.1165  35.9016 15.09847985 60636
SITRO-AIS 7 (FARTUSHNIY)
1 57194U 23091AE  24216.49559961  .00010660  00000+0  66838-3 0  9990
2 57194  97.6094 268.2979 0015803 323.6451  36.3703 15.09412827 60633
AVION KALUGA 650        
1 57195U 23091AF  24216.46176509  .00005817  00000+0  37561-3 0  9990
2 57195  97.6132 268.6931 0011844 314.8269  45.1996 15.08582853 60648
HORS 2                  
1 57196U 23091AG  24216.44606074  .00010254  00000+0  61677-3 0  9990
2 57196  97.6110 269.2383 0011259 310.3855  49.6391 15.10988397 60683
A-SEANSAT-PG1           
1 57197U 23091AH  24216.52500925  .00011072  00000+0  65658-3 0  9990
2 57197  97.6095 269.3444 0010747 312.9023  47.1304 15.11488502 60705
YARILO 3                
1 57198U 23091AJ  24216.44843495  .00029303  00000+0  13852-2 0  9998
2 57198  97.6134 271.3849 0008813 302.1609  57.8769 15.19316349 60816
SITRO-AIS 10 (BURDAEV)  
1 57199U 23091AK  24216.49122594  .00012500  00000+0  73551-3 0  9998
2 57199  97.6111 269.4512 0010601 311.5393  48.4927 15.11739645 60709
SITRO-AIS 9 (SHCHUKIN)  
1 57201U 23091AM  24216.49011393  .00011698  00000+0  68909-3 0  9994
2 57201  97.6106 269.4266 0010535 311.4342  48.5982 15.11716037 60704
UTMN 2 (RS27S)          
1 57203U 23091AP  24216.49533481  .00011065  00000+0  66420-3 0  9997
2 57203  97.6114 269.3130 0011188 306.2013  53.8181 15.11041816 60690
SITRO-AIS 12 (SMIRENNIY)
1 57204U 23091AQ  24216.51277821  .00011960  00000+0  70066-3 0  9999
2 57204  97.6109 269.5994 0010476 304.4202  55.6037 15.11910525 60719
ARCCUBE 1 (RS25S)       
1 57205U 23091AR  24216.47591029  .00020061  00000+0  10460-2 0  9997
2 57205  97.6057 270.3183 0008904 309.9665  50.0784 15.15965808 60770
SITRO-AIS 11 (SHEFFER)  
1 57208U 23091AU  24216.49576553  .00012987  00000+0  75840-3 0  9999
2 57208  97.6111 269.6099 0010337 305.0070  55.0189 15.12006505 60716
H2SAT (HEINRICH HERTZ)  
1 57213U 23093A   24215.91021861 -.00000011  00000+0  00000+0 0  9998
2 57213   0.0137  71.6982 0000849 145.1802  63.2611  1.00272137  4068
KUZGTU 1 (RS47S)        
1 57217U 23091AV  24216.50188228  .00011101  00000+0  69019-3 0  9997
2 57217  97.6096 268.4759 0015559 317.9345  42.0688 15.09712936 60646
2023-103B               
1 57422U 23103B   24216.16170660 -.00260637  00000+0 -15275-2 0  9998
2 57422  96.5803 283.5799 0004213 220.9996 167.1741 15.78900778 58959
FENGYUN 3F              
1 57490U 23111A   24216.51687232  .00000184  00000+0  10741-3 0  9990
2 57490  98.7675 285.2074 0000713  48.7783 311.3454 14.19846069 51987
HJ-2F                   
1 57519U 23116A   24216.51982132  .00015704  00000+0  67992-3 0  9998
2 57519  97.3888 222.4424 0004409 113.3676 246.8025 15.22490072 54891
XRISM                   
1 57800U 23137A   24215.89636530  .00007229  00000+0  53540-3 0  9999
2 57800  31.0034  75.1624 0010006 312.5075  47.4715 15.01752487 49638
